start=new Date('2021-09-18T00:00:00.000Z').valueOf();
sats=[{"PERIAPSIS":"546.818","MEAN_ELEMENT_THEORY":"SGP4","REV_AT_EPOCH":"359","MEAN_ANOMALY":"28.7816","ECCENTRICITY":"0.00005870","ELEMENT_SET_NO":"999","MEAN_MOTION_DDOT":"0.0000000000000","EPHEMERIS_TYPE":"0","SEMIMAJOR_AXIS":"6925.360","ARG_OF_PERICENTER":"82.2330","RA_OF_ASC_NODE":"315.9119","TIME_SYSTEM":"UTC","EPOCH":"2021-09-17T22:00:00.999936","OBJECT_NAME":"STARLINK-2640","SITE":"AFETR","REF_FRAME":"TEME","TLE_LINE2":"2 48438  53.0550 315.9119 0000587  82.2330  28.7816 15.06396334  3593","CENTER_NAME":"EARTH","GP_ID":"184913835","MEAN_MOTION":"15.06396334","CLASSIFICATION_TYPE":"U","COUNTRY_CODE":"US","OBJECT_TYPE":"PAYLOAD","TLE_LINE1":"1 48438U 21040L   21260.91667824  .00000368  00000-0  43585-4 0  9994","NORAD_CAT_ID":"48438","DECAY_DATE":null,"APOAPSIS":"547.631","INCLINATION":"53.0550","RCS_SIZE":"LARGE","PERIOD":"95.592","MEAN_MOTION_DOT":"0.00000368","LAUNCH_DATE":"2021-05-09","OBJECT_ID":"2021-040L","FILE":"3118116","BSTAR":"0.00004358500000"},{"INCLINATION":"53.0563","PERIOD":"95.593","RCS_SIZE":"LARGE","APOAPSIS":"547.898","LAUNCH_DATE":"2021-05-09","FILE":"3118116","OBJECT_ID":"2021-040M","BSTAR":"0.00005358900000","MEAN_MOTION_DOT":"0.00000517","COUNTRY_CODE":"US","MEAN_MOTION":"15.06379689","CLASSIFICATION_TYPE":"U","OBJECT_TYPE":"PAYLOAD","TLE_LINE1":"1 48439U 21040M   21260.91667824  .00000517  00000-0  53589-4 0  9996","NORAD_CAT_ID":"48439","DECAY_DATE":null,"TIME_SYSTEM":"UTC","RA_OF_ASC_NODE":"315.9096","EPOCH":"2021-09-17T22:00:00.999936","OBJECT_NAME":"STARLINK-2583","ARG_OF_PERICENTER":"96.2252","CENTER_NAME":"EARTH","GP_ID":"184914126","SITE":"AFETR","REF_FRAME":"TEME","TLE_LINE2":"2 48439  53.0563 315.9096 0000898  96.2252  34.8498 15.06379689  3616","MEAN_ANOMALY":"34.8498","ECCENTRICITY":"0.00008980","ELEMENT_SET_NO":"999","PERIAPSIS":"546.654","MEAN_ELEMENT_THEORY":"SGP4","REV_AT_EPOCH":"361","SEMIMAJOR_AXIS":"6925.411","EPHEMERIS_TYPE":"0","MEAN_MOTION_DDOT":"0.0000000000000"},{"ARG_OF_PERICENTER":"88.5813","RA_OF_ASC_NODE":"315.8965","TIME_SYSTEM":"UTC","OBJECT_NAME":"STARLINK-2682","EPOCH":"2021-09-17T22:00:00.999936","SITE":"AFETR","TLE_LINE2":"2 48440  53.0541 315.8965 0000802  88.5813  62.4814 15.06378242  3602","REF_FRAME":"TEME","GP_ID":"184913619","CENTER_NAME":"EARTH","MEAN_ELEMENT_THEORY":"SGP4","PERIAPSIS":"546.725","REV_AT_EPOCH":"360","MEAN_ANOMALY":"62.4814","ECCENTRICITY":"0.00008020","ELEMENT_SET_NO":"999","EPHEMERIS_TYPE":"0","MEAN_MOTION_DDOT":"0.0000000000000","SEMIMAJOR_AXIS":"6925.415","APOAPSIS":"547.836","INCLINATION":"53.0541","RCS_SIZE":"LARGE","PERIOD":"95.594","MEAN_MOTION_DOT":"0.00000266","LAUNCH_DATE":"2021-05-09","FILE":"3118116","OBJECT_ID":"2021-040N","BSTAR":"0.00003677700000","MEAN_MOTION":"15.06378242","CLASSIFICATION_TYPE":"U","COUNTRY_CODE":"US","TLE_LINE1":"1 48440U 21040N   21260.91667824  .00000266  00000-0  36777-4 0  9999","OBJECT_TYPE":"PAYLOAD","DECAY_DATE":null,"NORAD_CAT_ID":"48440"},{"APOAPSIS":"547.844","PERIOD":"95.593","RCS_SIZE":"LARGE","INCLINATION":"53.0533","MEAN_MOTION_DOT":"0.00000144","FILE":"3118116","BSTAR":"0.00002856300000","OBJECT_ID":"2021-040P","LAUNCH_DATE":"2021-05-09","CLASSIFICATION_TYPE":"U","MEAN_MOTION":"15.06386959","COUNTRY_CODE":"US","NORAD_CAT_ID":"48441","DECAY_DATE":null,"OBJECT_TYPE":"PAYLOAD","TLE_LINE1":"1 48441U 21040P   21260.91667824  .00000144  00000-0  28563-4 0  9999","ARG_OF_PERICENTER":"98.9698","EPOCH":"2021-09-17T22:00:00.999936","OBJECT_NAME":"STARLINK-2702","RA_OF_ASC_NODE":"315.8944","TIME_SYSTEM":"UTC","REF_FRAME":"TEME","TLE_LINE2":"2 48441  53.0533 315.8944 0000853  98.9698  72.0150 15.06386959  3607","SITE":"AFETR","CENTER_NAME":"EARTH","GP_ID":"184913717","REV_AT_EPOCH":"360","PERIAPSIS":"546.663","MEAN_ELEMENT_THEORY":"SGP4","ELEMENT_SET_NO":"999","ECCENTRICITY":"0.00008530","MEAN_ANOMALY":"72.0150","MEAN_MOTION_DDOT":"0.0000000000000","EPHEMERIS_TYPE":"0","SEMIMAJOR_AXIS":"6925.389"},{"RCS_SIZE":"LARGE","PERIOD":"95.592","INCLINATION":"53.0540","APOAPSIS":"547.894","FILE":"3118116","OBJECT_ID":"2021-040Q","BSTAR":"0.00002216400000","LAUNCH_DATE":"2021-05-09","MEAN_MOTION_DOT":"0.00000049","COUNTRY_CODE":"US","CLASSIFICATION_TYPE":"U","MEAN_MOTION":"15.06400789","DECAY_DATE":null,"NORAD_CAT_ID":"48442","TLE_LINE1":"1 48442U 21040Q   21260.91667824  .00000049  00000-0  22164-4 0  9995","OBJECT_TYPE":"PAYLOAD","OBJECT_NAME":"STARLINK-2644","EPOCH":"2021-09-17T22:00:00.999936","TIME_SYSTEM":"UTC","RA_OF_ASC_NODE":"315.8979","ARG_OF_PERICENTER":"85.6707","GP_ID":"184913522","CENTER_NAME":"EARTH","TLE_LINE2":"2 48442  53.0540 315.8979 0000986  85.6707 105.4182 15.06400789  3564","REF_FRAME":"TEME","SITE":"AFETR","ELEMENT_SET_NO":"999","MEAN_ANOMALY":"105.4182","ECCENTRICITY":"0.00009860","REV_AT_EPOCH":"356","MEAN_ELEMENT_THEORY":"SGP4","PERIAPSIS":"546.528","SEMIMAJOR_AXIS":"6925.346","MEAN_MOTION_DDOT":"0.0000000000000","EPHEMERIS_TYPE":"0"},{"MEAN_MOTION_DDOT":"0.0000000000000","EPHEMERIS_TYPE":"0","SEMIMAJOR_AXIS":"6925.411","MEAN_ELEMENT_THEORY":"SGP4","PERIAPSIS":"546.596","REV_AT_EPOCH":"360","ECCENTRICITY":"0.00009820","MEAN_ANOMALY":"118.1942","ELEMENT_SET_NO":"999","SITE":"AFETR","TLE_LINE2":"2 48443  53.0533 315.8949 0000982  92.8510 118.1942 15.06379468  3601","REF_FRAME":"TEME","GP_ID":"184913815","CENTER_NAME":"EARTH","ARG_OF_PERICENTER":"92.8510","RA_OF_ASC_NODE":"315.8949","TIME_SYSTEM":"UTC","OBJECT_NAME":"STARLINK-2663","EPOCH":"2021-09-17T22:00:00.999936","TLE_LINE1":"1 48443U 21040R   21260.91667824 -.00000636  00000-0 -23860-4 0  9994","OBJECT_TYPE":"PAYLOAD","DECAY_DATE":null,"NORAD_CAT_ID":"48443","MEAN_MOTION":"15.06379468","CLASSIFICATION_TYPE":"U","COUNTRY_CODE":"US","MEAN_MOTION_DOT":"-0.00000636","LAUNCH_DATE":"2021-05-09","FILE":"3118116","BSTAR":"-0.00002386000000","OBJECT_ID":"2021-040R","APOAPSIS":"547.957","INCLINATION":"53.0533","PERIOD":"95.593","RCS_SIZE":"LARGE"},{"SITE":"AFETR","REF_FRAME":"TEME","TLE_LINE2":"2 48444  53.0546 315.8980 0000948  83.9708 147.0619 15.06398201  3566","CENTER_NAME":"EARTH","GP_ID":"184913933","ARG_OF_PERICENTER":"83.9708","RA_OF_ASC_NODE":"315.8980","TIME_SYSTEM":"UTC","EPOCH":"2021-09-17T22:00:00.999936","OBJECT_NAME":"STARLINK-2645","MEAN_MOTION_DDOT":"0.0000000000000","EPHEMERIS_TYPE":"0","SEMIMAJOR_AXIS":"6925.354","PERIAPSIS":"546.563","MEAN_ELEMENT_THEORY":"SGP4","REV_AT_EPOCH":"356","MEAN_ANOMALY":"147.0619","ECCENTRICITY":"0.00009480","ELEMENT_SET_NO":"999","MEAN_MOTION_DOT":"-0.00001352","LAUNCH_DATE":"2021-05-09","BSTAR":"-0.00007193200000","FILE":"3118116","OBJECT_ID":"2021-040S","APOAPSIS":"547.876","INCLINATION":"53.0546","RCS_SIZE":"LARGE","PERIOD":"95.592","OBJECT_TYPE":"PAYLOAD","TLE_LINE1":"1 48444U 21040S   21260.91667824 -.00001352  00000-0 -71932-4 0  9994","NORAD_CAT_ID":"48444","DECAY_DATE":null,"MEAN_MOTION":"15.06398201","CLASSIFICATION_TYPE":"U","COUNTRY_CODE":"US"},{"RA_OF_ASC_NODE":"315.8961","TIME_SYSTEM":"UTC","OBJECT_NAME":"STARLINK-2634","EPOCH":"2021-09-17T22:00:00.999936","ARG_OF_PERICENTER":"91.6941","GP_ID":"184914030","CENTER_NAME":"EARTH","SITE":"AFETR","TLE_LINE2":"2 48445  53.0535 315.8961 0000905  91.6941 159.3719 15.06381922  3606","REF_FRAME":"TEME","ECCENTRICITY":"0.00009050","MEAN_ANOMALY":"159.3719","ELEMENT_SET_NO":"999","MEAN_ELEMENT_THEORY":"SGP4","PERIAPSIS":"546.642","REV_AT_EPOCH":"360","SEMIMAJOR_AXIS":"6925.404","EPHEMERIS_TYPE":"0","MEAN_MOTION_DDOT":"0.0000000000000","INCLINATION":"53.0535","RCS_SIZE":"LARGE","PERIOD":"95.593","APOAPSIS":"547.896","LAUNCH_DATE":"2021-05-09","BSTAR":"-0.00005814100000","FILE":"3118116","OBJECT_ID":"2021-040T","MEAN_MOTION_DOT":"-0.00001147","COUNTRY_CODE":"US","MEAN_MOTION":"15.06381922","CLASSIFICATION_TYPE":"U","TLE_LINE1":"1 48445U 21040T   21260.91667824 -.00001147  00000-0 -58141-4 0  9994","OBJECT_TYPE":"PAYLOAD","DECAY_DATE":null,"NORAD_CAT_ID":"48445"},{"OBJECT_TYPE":"PAYLOAD","TLE_LINE1":"1 48446U 21040U   21260.91667824 -.00001543  00000-0 -84750-4 0  9990","NORAD_CAT_ID":"48446","DECAY_DATE":null,"COUNTRY_CODE":"US","MEAN_MOTION":"15.06385232","CLASSIFICATION_TYPE":"U","LAUNCH_DATE":"2021-05-09","FILE":"3118069","OBJECT_ID":"2021-040U","BSTAR":"-0.00008475000000","MEAN_MOTION_DOT":"-0.00001543","INCLINATION":"53.0547","RCS_SIZE":"LARGE","PERIOD":"95.593","APOAPSIS":"548.012","SEMIMAJOR_AXIS":"6925.394","MEAN_MOTION_DDOT":"0.0000000000000","EPHEMERIS_TYPE":"0","ECCENTRICITY":"0.00010880","MEAN_ANOMALY":"181.3877","ELEMENT_SET_NO":"999","PERIAPSIS":"546.505","MEAN_ELEMENT_THEORY":"SGP4","REV_AT_EPOCH":"2166","CENTER_NAME":"EARTH","GP_ID":"184890536","SITE":"AFETR","REF_FRAME":"TEME","TLE_LINE2":"2 48446  53.0547 315.8981 0001088  89.6236 181.3877 15.06385232 21663","RA_OF_ASC_NODE":"315.8981","TIME_SYSTEM":"UTC","EPOCH":"2021-09-17T22:00:00.999936","OBJECT_NAME":"STARLINK-2247","ARG_OF_PERICENTER":"89.6236"},{"PERIOD":"95.593","RCS_SIZE":"LARGE","INCLINATION":"53.0532","APOAPSIS":"547.962","FILE":"3118116","BSTAR":"-0.00008667200000","OBJECT_ID":"2021-040V","LAUNCH_DATE":"2021-05-09","MEAN_MOTION_DOT":"-0.00001571","COUNTRY_CODE":"US","CLASSIFICATION_TYPE":"U","MEAN_MOTION":"15.06380698","DECAY_DATE":null,"NORAD_CAT_ID":"48447","TLE_LINE1":"1 48447U 21040V   21260.91667824 -.00001571  00000-0 -86672-4 0  9997","OBJECT_TYPE":"PAYLOAD","OBJECT_NAME":"STARLINK-2269","EPOCH":"2021-09-17T22:00:00.999936","RA_OF_ASC_NODE":"315.8940","TIME_SYSTEM":"UTC","ARG_OF_PERICENTER":"96.0422","GP_ID":"184914127","CENTER_NAME":"EARTH","TLE_LINE2":"2 48447  53.0532 315.8940 0000996  96.0422 195.0370 15.06380698  3604","REF_FRAME":"TEME","SITE":"AFETR","ELEMENT_SET_NO":"999","MEAN_ANOMALY":"195.0370","ECCENTRICITY":"0.00009960","REV_AT_EPOCH":"360","MEAN_ELEMENT_THEORY":"SGP4","PERIAPSIS":"546.583","SEMIMAJOR_AXIS":"6925.408","EPHEMERIS_TYPE":"0","MEAN_MOTION_DDOT":"0.0000000000000"}];
